NORAD_CAT_ID,OBJECT_NAME,OBJECT_TYPE,EPOCH,MEAN_MOTION,ECCENTRICITY,INCLINATION,RA_OF_ASC_NODE,ARG_OF_PERICENTER,MEAN_ANOMALY,BSTAR,MEAN_MOTION_DOT,MEAN_MOTION_DDOT,TLE_LINE0,TLE_LINE1,TLE_LINE2,SEMIMAJOR_AXIS,PERIOD,APOGEE,PERIGEE,DECAYED
51963.0,STARLINK-3675,PAYLOAD,2024-01-26 22:56:45,15.08036492,0.0001574,53.0559,255.243,75.0953,285.0211,0.00015124,2.07e-05,0.0,0 STARLINK-3675,1 51963U 22025H   24026.95607792  .00002070  00000-0  15124-3 0  9999,2 51963  53.0559 255.2430 0001574  75.0953 285.0211 15.08036492104518,6920.337,95.488,543.292,541.113,0.0
51963.0,STARLINK-3675,PAYLOAD,2024-01-27 19:37:25,15.08030764,0.0001646,53.0558,251.3689,75.4317,284.6855,4.0483e-05,3.44e-06,0.0,0 STARLINK-3675,1 51963U 22025H   24027.81765990  .00000344  00000-0  40483-4 0  9999,2 51963  53.0558 251.3689 0001646  75.4317 284.6855 15.08030764105738,6920.355,95.489,543.359,541.081,0.0
51963.0,STARLINK-3675,PAYLOAD,2024-01-27 21:12:51,15.08029747,0.0001605,53.0557,251.071,77.1135,283.0034,2.6031e-05,1.19e-06,0.0,0 STARLINK-3675,1 51963U 22025H   24027.88393495  .00000119  00000-0  26031-4 0  9996,2 51963  53.0557 251.0710 0001605  77.1135 283.0034 15.08029747104652,6920.358,95.489,543.334,541.112,0.0
51963.0,STARLINK-3675,PAYLOAD,2024-01-28 00:23:44,15.08030241,0.0001655,53.0558,250.4724,75.0895,285.0278,3.148e-05,2.04e-06,0.0,0 STARLINK-3675,1 51963U 22025H   24028.01648430  .00000204  00000-0  31480-4 0  9993,2 51963  53.0558 250.4724 0001655  75.0895 285.0278 15.08030241104671,6920.357,95.489,543.367,541.076,0.0
51963.0,STARLINK-3675,PAYLOAD,2024-01-28 21:04:24,15.0802971,0.0001501,53.055,246.595,93.4349,266.6813,-7.6186e-06,-4.05e-06,0.0,0 STARLINK-3675,1 51963U 22025H   24028.87805868 -.00000405  00000-0 -76186-5 0  9995,2 51963  53.0550 246.5950 0001501  93.4349 266.6813 15.08029710104802,6920.358,95.489,543.262,541.184,0.0
51963.0,STARLINK-3675,PAYLOAD,2024-01-30 19:12:02,15.08031802,0.0001235,53.0542,237.9397,92.8477,267.2654,5.2282e-05,5.28e-06,0.0,0 STARLINK-3675,1 51963U 22025H   24030.80002884  .00000528  00000-0  52282-4 0  9992,2 51963  53.0542 237.9397 0001235  92.8477 267.2654 15.08031802106189,6920.352,95.489,543.071,541.362,0.0
51963.0,STARLINK-3675,PAYLOAD,2024-01-30 20:47:28,15.08031482,0.0001249,53.0544,237.6429,95.9049,264.2083,4.6905e-05,4.44e-06,0.0,0 STARLINK-3675,1 51963U 22025H   24030.86630391  .00000444  00000-0  46905-4 0  9990,2 51963  53.0544 237.6429 0001249  95.9049 264.2083 15.08031482105106,6920.353,95.489,543.082,541.353,0.0
51963.0,STARLINK-3675,PAYLOAD,2024-01-31 12:41:50,15.08020018,0.0001489,53.0541,234.6638,103.893,256.2226,3.5445e-05,2.66e-06,0.0,0 STARLINK-3675,1 51963U 22025H   24031.52905957  .00000266  00000-0  35445-4 0  9996,2 51963  53.0541 234.6638 0001489 103.8930 256.2226 15.08020018106290,6920.388,95.489,543.283,541.222,0.0
51963.0,STARLINK-3675,PAYLOAD,2024-01-31 14:17:16,15.08021229,0.0001412,53.0533,234.3664,96.9915,263.1235,3.641e-05,2.81e-06,0.0,0 STARLINK-3675,1 51963U 22025H   24031.59533451  .00000281  00000-0  36410-4 0  9999,2 51963  53.0533 234.3664 0001412  96.9915 263.1235 15.08021229105211,6920.384,95.489,543.226,541.272,0.0
51963.0,STARLINK-3675,PAYLOAD,2024-01-31 22:14:27,15.08020913,0.0001389,53.0532,232.875,94.8672,265.2476,2.7698e-05,1.45e-06,0.0,0 STARLINK-3675,1 51963U 22025H   24031.92671188  .00000145  00000-0  27698-4 0  9993,2 51963  53.0532 232.8750 0001389  94.8672 265.2476 15.08020913105263,6920.385,95.489,543.211,541.289,0.0
51963.0,STARLINK-3675,PAYLOAD,2024-02-01 22:06:00,15.08027732,0.000138,53.0532,228.4006,94.9147,265.2,7.1729e-05,8.31e-06,0.0,0 STARLINK-3675,1 51963U 22025H   24032.92083451  .00000831  00000-0  71729-4 0  9990,2 51963  53.0532 228.4006 0001380  94.9147 265.2000 15.08027732105413,6920.364,95.489,543.184,541.274,0.0
51963.0,STARLINK-3675,PAYLOAD,2024-02-02 12:24:55,15.08028976,0.0001279,53.0537,225.7172,92.7457,267.3679,0.00010907,1.412e-05,0.0,0 STARLINK-3675,1 51963U 22025H   24033.51730789  .00001412  00000-0  10907-3 0  9995,2 51963  53.0537 225.7172 0001279  92.7457 267.3679 15.08028976105505,6920.36,95.489,543.111,541.34,0.0
51963.0,STARLINK-3675,PAYLOAD,2024-02-02 20:22:06,15.08025981,0.00013,53.0544,224.2252,91.2593,268.8545,5.895e-05,6.32e-06,0.0,0 STARLINK-3675,1 51963U 22025H   24033.84868728  .00000632  00000-0  58950-4 0  9990,2 51963  53.0544 224.2252 0001300  91.2593 268.8545 15.08025981105552,6920.37,95.489,543.134,541.335,0.0
51963.0,STARLINK-3675,PAYLOAD,2024-02-03 18:38:12,15.08031833,0.0001339,53.0539,220.0481,96.079,264.0352,4.2918e-05,3.82e-06,0.0,0 STARLINK-3675,1 51963U 22025H   24034.77653506  .00000382  00000-0  42918-4 0  9998,2 51963  53.0539 220.0481 0001339  96.0790 264.0352 15.08031833106781,6920.352,95.489,543.143,541.29,0.0
51963.0,STARLINK-3675,PAYLOAD,2024-02-03 21:49:04,15.08032611,0.0001335,53.0538,219.4512,97.8877,262.2264,4.7416e-05,4.52e-06,0.0,0 STARLINK-3675,1 51963U 22025H   24034.90908375  .00000452  00000-0  47416-4 0  9996,2 51963  53.0538 219.4512 0001335  97.8877 262.2264 15.08032611105717,6920.349,95.489,543.138,541.29,0.0
51963.0,STARLINK-3675,PAYLOAD,2024-02-04 18:29:44,15.08038022,0.0001405,53.0543,215.5752,88.345,271.7701,0.00014802,2.02e-05,0.0,0 STARLINK-3675,1 51963U 22025H   24035.77065059  .00002020  00000-0  14802-3 0  9990,2 51963  53.0543 215.5752 0001405  88.3450 271.7701 15.08038022106934,6920.333,95.488,543.17,541.225,0.0
51963.0,STARLINK-3675,PAYLOAD,2024-02-04 21:40:36,15.08039476,0.0001381,53.0542,214.978,90.0827,270.0321,0.00015146,2.073e-05,0.0,0 STARLINK-3675,1 51963U 22025H   24035.90319859  .00002073  00000-0  15146-3 0  9995,2 51963  53.0542 214.9780 0001381  90.0827 270.0321 15.08039476105863,6920.328,95.488,543.149,541.238,0.0
51963.0,STARLINK-3675,PAYLOAD,2024-02-05 11:59:32,15.08032862,0.0001505,53.0539,212.2921,73.3869,286.7286,1.9389e-05,1.6e-07,0.0,0 STARLINK-3675,1 51963U 22025H   24036.49968186  .00000016  00000-0  19389-4 0  9992,2 51963  53.0539 212.2921 0001505  73.3869 286.7286 15.08032862107043,6920.349,95.489,543.255,541.172,0.0
51963.0,STARLINK-3675,PAYLOAD,2024-02-05 16:45:50,15.08032866,0.000148,53.055,211.4008,95.578,264.5378,6.693e-07,-2.76e-06,0.0,0 STARLINK-3675,1 51963U 22025H   24036.69850603 -.00000276  00000-0  66930-6 0  9993,2 51963  53.0550 211.4008 0001480  95.5780 264.5378 15.08032866105984,6920.349,95.489,543.238,541.189,0.0
51963.0,STARLINK-3675,PAYLOAD,2024-02-06 11:51:03,15.08042979,0.0001458,53.0538,207.8137,108.8189,251.2959,6.4118e-06,-1.86e-06,0.0,0 STARLINK-3675,1 51963U 22025H   24037.49379460 -.00000186  00000-0  64118-5 0  9994,2 51963  53.0538 207.8137 0001458 108.8189 251.2959 15.08042979107197,6920.318,95.488,543.192,541.174,0.0
51963.0,STARLINK-3675,PAYLOAD,2024-02-06 16:37:22,15.08031982,0.0001483,53.0543,206.9239,95.8866,264.2293,-5.7822e-05,-1.186e-05,0.0,0 STARLINK-3675,1 51963U 22025H   24037.69262711 -.00001186  00000-0 -57822-4 0  9991,2 51963  53.0543 206.9239 0001483  95.8866 264.2293 15.08031982107222,6920.351,95.489,543.243,541.19,0.0
51963.0,STARLINK-3675,PAYLOAD,2024-02-07 14:53:29,15.0802602,0.0001651,53.055,202.751,113.3987,246.7176,2.5281e-05,1.08e-06,0.0,0 STARLINK-3675,1 51963U 22025H   24038.62047928  .00000108  00000-0  25281-4 0  9991,2 51963  53.0550 202.7510 0001651 113.3987 246.7176 15.08026020106279,6920.37,95.489,543.377,541.092,0.0
51963.0,STARLINK-3675,PAYLOAD,2024-02-07 18:04:20,15.08068517,0.0001761,53.0545,202.1552,111.9673,248.1504,-0.00054901,-8.832e-05,0.0,0 STARLINK-3675,1 51963U 22025H   24038.75301781 -.00008832  00000-0 -54901-3 0  9999,2 51963  53.0545 202.1552 0001761 111.9673 248.1504 15.08068517107382,6920.24,95.486,543.323,540.886,0.0
51963.0,STARLINK-3675,PAYLOAD,2024-02-08 09:58:44,15.08018045,0.0001834,53.0547,199.1714,94.6048,265.5152,2.9969e-05,1.8e-06,0.0,0 STARLINK-3675,1 51963U 22025H   24039.41578707  .00000180  00000-0  29969-4 0  9990,2 51963  53.0547 199.1714 0001834  94.6048 265.5152 15.08018045107487,6920.394,95.49,543.528,540.99,0.0
51963.0,STARLINK-3675,PAYLOAD,2024-02-08 14:45:02,15.08016886,0.0001996,53.0551,198.2765,92.3509,267.771,1.8049e-05,-5e-08,0.0,0 STARLINK-3675,1 51963U 22025H   24039.61461522 -.00000005  00000-0  18049-4 0  9992,2 51963  53.0551 198.2765 0001996  92.3509 267.7710 15.08016886106422,6920.397,95.49,543.644,540.881,0.0
51963.0,STARLINK-3675,PAYLOAD,2024-02-08 17:55:55,15.08017279,0.0001558,53.055,197.6804,97.6089,262.5078,2.1265e-05,4.5e-07,0.0,0 STARLINK-3675,1 51963U 22025H   24039.74716495  .00000045  00000-0  21265-4 0  9995,2 51963  53.0550 197.6804 0001558  97.6089 262.5078 15.08017279106442,6920.396,95.49,543.339,541.183,0.0
51963.0,STARLINK-3675,PAYLOAD,2024-02-09 09:50:15,15.08033881,0.0001487,53.0556,194.6968,81.1526,278.9632,9.5367e-05,1.199e-05,0.0,0 STARLINK-3675,1 51963U 22025H   24040.40990611  .00001199  00000-0  95367-4 0  9999,2 51963  53.0556 194.6968 0001487  81.1526 278.9632 15.08033881107637,6920.345,95.489,543.24,541.181,0.0
51963.0,STARLINK-3675,PAYLOAD,2024-02-09 14:36:33,15.08040219,0.00015,53.0558,193.8032,87.0701,273.0461,0.00017057,2.371e-05,0.0,0 STARLINK-3675,1 51963U 22025H   24040.60872431  .00002371  00000-0  17057-3 0  9992,2 51963  53.0558 193.8032 0001500  87.0701 273.0461 15.08040219106579,6920.326,95.488,543.229,541.153,0.0
51963.0,STARLINK-3675,PAYLOAD,2024-02-09 16:11:59,15.08042253,0.0001509,53.0556,193.5048,86.3953,273.7209,0.00019445,2.744e-05,0.0,0 STARLINK-3675,1 51963U 22025H   24040.67499804  .00002744  00000-0  19445-3 0  9995,2 51963  53.0556 193.5048 0001509  86.3953 273.7209 15.08042253107670,6920.32,95.488,543.229,541.141,0.0
51963.0,STARLINK-3675,PAYLOAD,2024-02-10 09:41:48,15.08036935,0.0002107,53.054,190.2269,74.3189,285.8033,7.999e-05,9.59e-06,0.0,0 STARLINK-3675,1 51963U 22025H   24041.40403102  .00000959  00000-0  79990-4 0  9991,2 51963  53.0540 190.2269 0002107  74.3189 285.8033 15.08036935107786,6920.336,95.488,543.659,540.743,0.0
